IRIDIUM 136             
1 42962U 17061H   24246.84812369  .00000801  00000+0  27901-3 0  9997
2 42962  86.3948 297.8626 0002120  85.0172 275.1265 14.34218703361338
